[{"OBJECT_NAME":"STARLINK-4552","OBJECT_ID":"2022-097AJ","EPOCH":"2026-03-09T12:58:05.890944","MEAN_MOTION":15.08836131,"ECCENTRICITY":0.00012075,"INCLINATION":53.2159,"RA_OF_ASC_NODE":114.7924,"ARG_OF_PERICENTER":83.9383,"MEAN_ANOMALY":276.1747,"EPHEMERIS_TYPE":0,"CLASSIFICATION_TYPE":"U","NORAD_CAT_ID":53420,"ELEMENT_SET_NO":999,"REV_AT_EPOCH":19860,"BSTAR":7.46002e-6,"MEAN_MOTION_DOT":-1.69e-6,"MEAN_MOTION_DDOT":0},{"OBJECT_NAME":"OBJECT T","OBJECT_ID":"2018-099T","EPOCH":"2026-03-09T14:32:29.418720","MEAN_MOTION":15.09436097,"ECCENTRICITY":0.0004517,"INCLINATION":97.4347,"RA_OF_ASC_NODE":115.9313,"ARG_OF_PERICENTER":320.9739,"MEAN_ANOMALY":39.1164,"EPHEMERIS_TYPE":0,"CLASSIFICATION_TYPE":"U","NORAD_CAT_ID":43775,"ELEMENT_SET_NO":999,"REV_AT_EPOCH":39729,"BSTAR":0.00032877,"MEAN_MOTION_DOT":5.2e-5,"MEAN_MOTION_DDOT":0}]
